{
    "links": {
        "self": "http://www.neowsapp.com/rest/v1/neo/3753020?api_key=iIulBulltgU6a56xZRHN4H3l9WmuAYTsLGpBGhQ2"
    },
    "id": "3753020",
    "neo_reference_id": "3753020",
    "name": "(2016 JL17)",
    "designation": "2016 JL17",
    "nasa_jpl_url": "http://ssd.jpl.nasa.gov/sbdb.cgi?sstr=3753020",
    "absolute_magnitude_h": 24.6,
    "estimated_diameter": {
        "kilometers": {
            "estimated_diameter_min": 0.0319561887,
            "estimated_diameter_max": 0.0714562102
        },
        "meters": {
            "estimated_diameter_min": 31.9561886721,
            "estimated_diameter_max": 71.4562101727
        },
        "miles": {
            "estimated_diameter_min": 0.0198566489,
            "estimated_diameter_max": 0.0444008168
        },
        "feet": {
            "estimated_diameter_min": 104.8431420431,
            "estimated_diameter_max": 234.436392583
        }
    },
    "is_potentially_hazardous_asteroid": false,
    "close_approach_data": [
        {
            "close_approach_date": "2016-05-11",
            "close_approach_date_full": "2016-May-11 19:37",
            "epoch_date_close_approach": 1462995420000,
            "relative_velocity": {
                "kilometers_per_second": "11.0048011743",
                "kilometers_per_hour": "39617.2842274008",
                "miles_per_hour": "24616.6397467425"
            },
            "miss_distance": {
                "astronomical": "0.1229033382",
                "lunar": "47.8093985598",
                "kilometers": "18386077.610609634",
                "miles": "11424578.8624715892"
            },
            "orbiting_body": "Earth"
        },
        {
            "close_approach_date": "2016-09-28",
            "close_approach_date_full": "2016-Sep-28 13:49",
            "epoch_date_close_approach": 1475070540000,
            "relative_velocity": {
                "kilometers_per_second": "10.4555308049",
                "kilometers_per_hour": "37639.9108978121",
                "miles_per_hour": "23387.9768575877"
            },
            "miss_distance": {
                "astronomical": "0.3124222318",
                "lunar": "121.5322481702",
                "kilometers": "46737700.417926266",
                "miles": "29041460.3692878308"
            },
            "orbiting_body": "Earth"
        }
    ],
    "orbital_data": {
        "orbit_id": "4",
        "orbit_determination_date": "2017-04-06 08:26:03",
        "first_observation_date": "2016-05-05",
        "last_observation_date": "2016-05-11",
        "data_arc_in_days": 6,
        "observations_used": 20,
        "orbit_uncertainty": "8",
        "minimum_orbit_intersection": ".122245",
        "jupiter_tisserand_invariant": "4.840",
        "epoch_osculation": "2457515.5",
        "eccentricity": ".2213404161937949",
        "semi_major_axis": "1.330795133902187",
        "inclination": "19.42848135246401",
        "ascending_node_longitude": "222.2120599971934",
        "orbital_period": "560.7447719235796",
        "perihelion_distance": "1.0362363850956",
        "perihelion_argument": "62.77164546454416",
        "aphelion_distance": "1.625353882708774",
        "perihelion_time": "2457575.361510292576",
        "mean_anomaly": "321.56871221215",
        "mean_motion": ".6420033106417659",
        "equinox": "J2000",
        "orbit_class": {
            "orbit_class_type": "AMO",
            "orbit_class_description": "Near-Earth asteroid orbits similar to that of 1221 Amor",
            "orbit_class_range": "1.017 AU < q (perihelion) < 1.3 AU"
        }
    },
    "is_sentry_object": false
}